{"type":"FeatureCollection","features":[{"type":"Feature","geometry":{"type":"MultiPolygon","coordinates":[[[[12.3028,45.8699],[12.0521,45.777],[12.0002,45.8451],[12.2507,45.938],[12.3028,45.8699]],[[12.1528,45.8545],[12.1472,45.8565],[12.15,45.8604],[12.1556,45.8584],[12.1528,45.8545],[12.1651,45.8281],[12.1528,45.8545]]],[[[12.31,45.8604],[12.0594,45.7675],[12.31,45.8604],[12.31,45.8604]]]]},"properties":{"type":"individual","idsource":"ITIS101","name":"Montello","maxmag":6.5,"mindepth_km":1,"maxdepth_km":8.2,"linktoinfo":"https://diss.ingv.it/diss331/sources.php?ITIS101"}},{"type":"Feature","geometry":{"type":"MultiPolygon","coordinates":[[[[11.9957,45.8328],[11.7947,45.7519],[11.7445,45.8125],[11.9454,45.8934],[11.9957,45.8328]],[[11.8714,45.82],[11.8663,45.8217],[11.8687,45.8253],[11.8738,45.8236],[11.8714,45.82],[11.8838,45.7964],[11.8714,45.82]]],[[[12.0049,45.8217],[11.8039,45.7408],[12.0049,45.8217],[12.0049,45.8217]]]]},"properties":{"type":"individual","idsource":"ITIS102","name":"Bassano-Cornuda","maxmag":6.6,"mindepth_km":1,"maxdepth_km":6.4,"linktoinfo":"https://diss.ingv.it/diss331/sources.php?ITIS102"}},{"type":"Feature","geometry":{"type":"MultiPolygon","coordinates":[[[[12.7557,46.213],[12.6685,46.1738],[12.6348,46.2098],[12.7219,46.249],[12.7557,46.213]],[[12.6966,46.21],[12.6932,46.2105],[12.6939,46.2128],[12.6973,46.2123],[12.6966,46.21],[12.7087,46.197],[12.6966,46.21]]],[[[12.7618,46.2065],[12.6746,46.1673],[12.7618,46.2065],[12.7618,46.2065]]]]},"properties":{"type":"individual","idsource":"ITIS108","name":"Maniago","maxmag":5.9,"mindepth_km":0.5,"maxdepth_km":3.3,"linktoinfo":"https://diss.ingv.it/diss331/sources.php?ITIS108"}},{"type":"Feature","geometry":{"type":"MultiPolygon","coordinates":[[[[11.7963,45.8256],[11.8522,45.8481],[11.8728,45.8232],[11.8169,45.8008],[11.7963,45.8256]],[[11.834,45.8255],[11.8361,45.8248],[11.8351,45.8234],[11.833,45.824],[11.834,45.8255],[11.8289,45.8352],[11.834,45.8255]]],[[[11.7917,45.8312],[11.8476,45.8537],[11.7917,45.8312],[11.7917,45.8312]]]]},"properties":{"type":"individual","idsource":"ITIS113","name":"Monte Grappa","maxmag":5.5,"mindepth_km":0.5,"maxdepth_km":2.7,"linktoinfo":"https://diss.ingv.it/diss331/sources.php?ITIS113"}},{"type":"Feature","geometry":{"type":"MultiPolygon","coordinates":[[[[12.484,46.0555],[12.4116,45.981],[12.3674,46.0017],[12.4398,46.0762],[12.484,46.0555]],[[12.4266,46.0273],[12.4238,46.0279],[12.4248,46.0299],[12.4276,46.0292],[12.4266,46.0273],[12.435,46.0153],[12.4266,46.0273]]],[[[12.4975,46.0492],[12.4251,45.9746],[12.4975,46.0492],[12.4975,46.0492]]]]},"properties":{"type":"individual","idsource":"ITIS124","name":"Cansiglio","maxmag":6.1,"mindepth_km":1.5,"maxdepth_km":6.4,"linktoinfo":"https://diss.ingv.it/diss331/sources.php?ITIS124"}},{"type":"Feature","geometry":{"type":"MultiPolygon","coordinates":[[[[12.641,46.1575],[12.516,46.0541],[12.4513,46.0918],[12.5762,46.1951],[12.641,46.1575]],[[12.5483,46.1228],[12.5435,46.1231],[12.5439,46.1264],[12.5487,46.1261],[12.5483,46.1228],[12.5678,46.1067],[12.5483,46.1228]]],[[[12.6647,46.1437],[12.5397,46.0404],[12.6647,46.1437],[12.6647,46.1437]]]]},"properties":{"type":"individual","idsource":"ITIS125","name":"Polcenigo-Montereale","maxmag":6.4,"mindepth_km":2,"maxdepth_km":7.5,"linktoinfo":"https://diss.ingv.it/diss331/sources.php?ITIS125"}},{"type":"Feature","geometry":{"type":"MultiPolygon","coordinates":[[[[11.7437,45.7565],[11.5354,45.6855],[11.4889,45.752],[11.6972,45.823],[11.7437,45.7565]],[[11.6174,45.7514],[11.6122,45.7535],[11.6151,45.7571],[11.6204,45.7551],[11.6174,45.7514],[11.628,45.7258],[11.6174,45.7514]]],[[[11.7535,45.7425],[11.5452,45.6715],[11.7535,45.7425],[11.7535,45.7425]]]]},"properties":{"type":"individual","idsource":"ITIS127","name":"Thiene-Bassano","maxmag":6.6,"mindepth_km":1,"maxdepth_km":5.8,"linktoinfo":"https://diss.ingv.it/diss331/sources.php?ITIS127"}},{"type":"Feature","geometry":{"type":"LineString","coordinates":[[14.0194,46.543],[13.9544,46.5473],[13.8891,46.5492],[13.8238,46.5508],[13.7586,46.5534],[13.694,46.5602],[13.6299,46.5688],[13.5664,46.5795],[13.5028,46.59],[13.4393,46.6006],[13.375,46.6088],[13.3107,46.617],[13.2464,46.6255],[13.1827,46.6355],[13.1189,46.6457],[13.0555,46.6568],[12.9916,46.6667],[12.9276,46.6761],[12.863,46.6836],[12.7981,46.6897],[12.7332,46.6956],[12.6682,46.701],[12.6033,46.7073],[12.5385,46.7142],[12.4738,46.7211],[12.409,46.7279],[12.3441,46.7345],[12.2793,46.7411],[12.2143,46.7472],[12.1492,46.7525],[12.085,46.7616],[12.0229,46.776],[11.9607,46.7905],[11.8962,46.7986],[11.8313,46.8052],[11.7668,46.8139],[11.703,46.8244],[11.6396,46.836],[11.5759,46.8472],[11.512,46.8574],[11.4505,46.8734]]},"properties":{"type":"composite_top","idsource":"ATCS010","name":"Western Periadriatic","maxmag":7.6,"mindepth_km":0,"maxdepth_km":15,"linktoinfo":"https://diss.ingv.it/diss331/sources.php?ATCS010"}},{"type":"Feature","geometry":{"type":"LineString","coordinates":[[11.093,47.3164],[11.1583,47.3015],[11.223,47.2855],[11.2877,47.2696],[11.3485,47.2476],[11.4005,47.2171],[11.4423,47.18],[11.4643,47.1357],[11.4838,47.0909],[11.4987,47.0454],[11.488,46.9992],[11.469,46.9544],[11.4483,46.9098],[11.4181,46.8661]]},"properties":{"type":"composite_top","idsource":"ATCS012","name":"Brenner","maxmag":7.2,"mindepth_km":3.5,"maxdepth_km":15,"linktoinfo":"https://diss.ingv.it/diss331/sources.php?ATCS012"}},{"type":"Feature","geometry":{"type":"LineString","coordinates":[[12.0172,45.821],[11.9586,45.7994],[11.9001,45.7778],[11.8416,45.7562],[11.7793,45.7407],[11.7142,45.7324],[11.6549,45.7119],[11.5957,45.6914],[11.5365,45.6708],[11.4769,45.6502]]},"properties":{"type":"composite_top","idsource":"ITCS007","name":"Thiene-Cornuda","maxmag":6.5,"mindepth_km":0.5,"maxdepth_km":6.5,"linktoinfo":"https://diss.ingv.it/diss331/sources.php?ITCS007"}},{"type":"Feature","geometry":{"type":"LineString","coordinates":[[11.07,46.086],[11.0384,46.0451],[11.0035,46.0056],[10.969,45.9659],[10.9346,45.9262],[10.9015,45.886],[10.8708,45.8448],[10.8367,45.805],[10.8022,45.7654],[10.7689,45.7252],[10.7344,45.6856],[10.6965,45.6476],[10.655,45.6114],[10.612,45.5762],[10.5641,45.5441],[10.5116,45.5159],[10.4536,45.4936],[10.3888,45.4844],[10.3211,45.4829]]},"properties":{"type":"composite_top","idsource":"ITCS048","name":"Giudicarie","maxmag":6.8,"mindepth_km":5,"maxdepth_km":12,"linktoinfo":"https://diss.ingv.it/diss331/sources.php?ITCS048"}},{"type":"Feature","geometry":{"type":"LineString","coordinates":[[12.6807,46.1492],[12.6412,46.1124],[12.6003,46.0764],[12.5593,46.0404],[12.515,46.0064],[12.4702,45.9727],[12.4254,45.9391],[12.3806,45.9054],[12.3359,45.8718],[12.2831,45.8444],[12.2251,45.8227],[12.1671,45.801],[12.1092,45.7793],[12.051,45.7575]]},"properties":{"type":"composite_top","idsource":"ITCS060","name":"Montebelluna-Montereale","maxmag":6.8,"mindepth_km":1,"maxdepth_km":9,"linktoinfo":"https://diss.ingv.it/diss331/sources.php?ITCS060"}},{"type":"Feature","geometry":{"type":"LineString","coordinates":[[12.9861,46.2139],[12.9217,46.2085],[12.8573,46.2031],[12.7932,46.1965],[12.7341,46.1781],[12.6813,46.152]]},"properties":{"type":"composite_top","idsource":"ITCS071","name":"Andreis-Forgaria nel Friuli","maxmag":6.7,"mindepth_km":0.5,"maxdepth_km":7.5,"linktoinfo":"https://diss.ingv.it/diss331/sources.php?ITCS071"}},{"type":"Feature","geometry":{"type":"LineString","coordinates":[[12.3454,46.0939],[12.324,46.0528],[12.2903,46.0158],[12.2416,45.9882],[12.1868,45.9667],[12.1315,45.9459],[12.0789,45.922],[12.0275,45.8969],[11.9731,45.875],[11.9159,45.857],[11.8598,45.8374],[11.8055,45.8156],[11.7476,45.7987],[11.6874,45.785]]},"properties":{"type":"composite_top","idsource":"ITCS105","name":"Bassano-Vittorio Veneto","maxmag":6.9,"mindepth_km":1,"maxdepth_km":10,"linktoinfo":"https://diss.ingv.it/diss331/sources.php?ITCS105"}},{"type":"Feature","geometry":{"type":"LineString","coordinates":[[11.9431,45.2162],[11.9058,45.2516],[11.8685,45.287],[11.8312,45.3225],[11.7939,45.3579],[11.7546,45.3923],[11.7145,45.4263],[11.6738,45.4599],[11.6317,45.4926],[11.5896,45.5254],[11.5468,45.5577],[11.5036,45.5898],[11.4604,45.622],[11.4176,45.6543],[11.3748,45.6867],[11.332,45.7191],[11.2903,45.7523],[11.2502,45.7864],[11.2121,45.8216],[11.174,45.8568]]},"properties":{"type":"composite_top","idsource":"ITCS175","name":"Schio-Vicenza","maxmag":7.3,"mindepth_km":1,"maxdepth_km":15,"linktoinfo":"https://diss.ingv.it/diss331/sources.php?ITCS175"}}]}