{"type": "FeatureCollection", "features": [{"type": "Feature", "geometry": {"type": "Point", "coordinates": [10.47097, 45.81931]}, "properties": {"id": "bagolino-gssp", "kind": "gssp", "name": "Bagolino (Ladinian GSSP)", "source_ref": "ics-gssp"}}, {"type": "Feature", "geometry": {"type": "Point", "coordinates": [11.93028, 46.52694]}, "properties": {"id": "prati-di-stuores-gssp", "kind": "gssp", "name": "Prati di Stuores / Stuores Wiesen (Carnian GSSP)", "source_ref": "ics-gssp"}}, {"type": "Feature", "geometry": {"type": "Point", "coordinates": [11.575, 46.38083]}, "properties": {"id": "latemar", "kind": "platform", "name": "Latemar", "source_ref": "iugs-latemar"}}, {"type": "Feature", "geometry": {"type": "Point", "coordinates": [11.57556, 46.515]}, "properties": {"id": "sciliar", "kind": "platform", "name": "Schlern / Sciliar", "source_ref": "marangon-2021"}}, {"type": "Feature", "geometry": {"type": "Point", "coordinates": [11.83333, 46.5]}, "properties": {"id": "sella", "kind": "platform", "name": "Sella group", "source_ref": "preto-2021"}}, {"type": "Feature", "geometry": {"type": "Point", "coordinates": [11.85, 46.42444]}, "properties": {"id": "marmolada", "kind": "peak", "name": "Marmolada", "source_ref": "securo-2025"}}, {"type": "Feature", "geometry": {"type": "Point", "coordinates": [11.51134, 46.28934]}, "properties": {"id": "tesero", "kind": "section", "name": "Tesero", "source_ref": "thompson-2019"}}, {"type": "Feature", "geometry": {"type": "Point", "coordinates": [11.63518, 46.56417]}, "properties": {"id": "bulla-pufels", "kind": "section", "name": "Bulla / Pufels", "source_ref": "thompson-2019"}}, {"type": "Feature", "geometry": {"type": "Point", "coordinates": [11.41158, 46.36283]}, "properties": {"id": "bletterbach", "kind": "section", "name": "Bletterbach", "source_ref": "geoparc-bletterbach"}}, {"type": "Feature", "geometry": {"type": "Point", "coordinates": [10.93718, 45.98713]}, "properties": {"id": "marocche-di-dro", "kind": "landslide", "name": "Marocche di Dro", "source_ref": "provincia-tn-marocche"}}, {"type": "Feature", "geometry": {"type": "Point", "coordinates": [11.35478, 46.49811]}, "properties": {"id": "bolzano", "kind": "city", "name": "Bolzano / Bozen", "source_ref": "bolzano-geologia"}}]}